CCSDS_OMM_VERS = 2.0
CREATION_DATE  = 
ORIGINATOR     = 

OBJECT_NAME    = STARLINK-36255
OBJECT_ID      = 2025-299A
CENTER_NAME    = EARTH
REF_FRAME      = TEME
TIME_SYSTEM    = UTC
MEAN_ELEMENT_THEORY = SGP/SGP4

EPOCH          = 2026-01-13T13:47:25.256832
MEAN_MOTION    = 15.40728019
ECCENTRICITY   = .00009935
INCLINATION    = 42.9988
RA_OF_ASC_NODE = 126.6166
ARG_OF_PERICENTER = 106.5023
MEAN_ANOMALY   = 253.5943

EPHEMERIS_TYPE = 0
CLASSIFICATION_TYPE = U
NORAD_CAT_ID   = 67102
ELEMENT_SET_NO = 999
REV_AT_EPOCH   = 461
BSTAR          = .65431923E-3
MEAN_MOTION_DOT = .27151E-3
MEAN_MOTION_DDOT = 0

CCSDS_OMM_VERS = 2.0
CREATION_DATE  = 
ORIGINATOR     = 

OBJECT_NAME    = STARLINK-36256
OBJECT_ID      = 2025-299B
CENTER_NAME    = EARTH
REF_FRAME      = TEME
TIME_SYSTEM    = UTC
MEAN_ELEMENT_THEORY = SGP/SGP4

EPOCH          = 2026-01-14T03:41:08.719296
MEAN_MOTION    = 15.40723164
ECCENTRICITY   = .00016928
INCLINATION    = 43.0006
RA_OF_ASC_NODE = 123.2227
ARG_OF_PERICENTER = 273.2391
MEAN_ANOMALY   = 86.8272

EPHEMERIS_TYPE = 0
CLASSIFICATION_TYPE = U
NORAD_CAT_ID   = 67103
ELEMENT_SET_NO = 999
REV_AT_EPOCH   = 470
BSTAR          = .60290518E-3
MEAN_MOTION_DOT = .24983E-3
MEAN_MOTION_DDOT = 0

CCSDS_OMM_VERS = 2.0
CREATION_DATE  = 
ORIGINATOR     = 

OBJECT_NAME    = STARLINK-36258
OBJECT_ID      = 2025-299C
CENTER_NAME    = EARTH
REF_FRAME      = TEME
TIME_SYSTEM    = UTC
MEAN_ELEMENT_THEORY = SGP/SGP4

EPOCH          = 2026-01-14T06:00:02.000160
MEAN_MOTION    = 15.40652886
ECCENTRICITY   = .00019396
INCLINATION    = 43.0001
RA_OF_ASC_NODE = 121.9105
ARG_OF_PERICENTER = 265.8545
MEAN_ANOMALY   = 220.8462

EPHEMERIS_TYPE = 0
CLASSIFICATION_TYPE = U
NORAD_CAT_ID   = 67104
ELEMENT_SET_NO = 999
REV_AT_EPOCH   = 603
BSTAR          = .11619E-2
MEAN_MOTION_DOT = .48465E-3
MEAN_MOTION_DDOT = 0

CCSDS_OMM_VERS = 2.0
CREATION_DATE  = 
ORIGINATOR     = 

OBJECT_NAME    = STARLINK-36261
OBJECT_ID      = 2025-299D
CENTER_NAME    = EARTH
REF_FRAME      = TEME
TIME_SYSTEM    = UTC
MEAN_ELEMENT_THEORY = SGP/SGP4

EPOCH          = 2026-01-13T16:50:54.016512
MEAN_MOTION    = 15.40729416
ECCENTRICITY   = .00017457
INCLINATION    = 43.0011
RA_OF_ASC_NODE = 125.8549
ARG_OF_PERICENTER = 271.2696
MEAN_ANOMALY   = 88.7960

EPHEMERIS_TYPE = 0
CLASSIFICATION_TYPE = U
NORAD_CAT_ID   = 67105
ELEMENT_SET_NO = 999
REV_AT_EPOCH   = 463
BSTAR          = .70263694E-3
MEAN_MOTION_DOT = .29188E-3
MEAN_MOTION_DDOT = 0

CCSDS_OMM_VERS = 2.0
CREATION_DATE  = 
ORIGINATOR     = 

OBJECT_NAME    = STARLINK-36259
OBJECT_ID      = 2025-299E
CENTER_NAME    = EARTH
REF_FRAME      = TEME
TIME_SYSTEM    = UTC
MEAN_ELEMENT_THEORY = SGP/SGP4

EPOCH          = 2026-01-13T08:38:20.083488
MEAN_MOTION    = 15.40730226
ECCENTRICITY   = .0001024
INCLINATION    = 42.9974
RA_OF_ASC_NODE = 127.5842
ARG_OF_PERICENTER = 304.5428
MEAN_ANOMALY   = 55.5332

EPHEMERIS_TYPE = 0
CLASSIFICATION_TYPE = U
NORAD_CAT_ID   = 67106
ELEMENT_SET_NO = 999
REV_AT_EPOCH   = 458
BSTAR          = .79471E-3
MEAN_MOTION_DOT = .3307E-3
MEAN_MOTION_DDOT = 0

CCSDS_OMM_VERS = 2.0
CREATION_DATE  = 
ORIGINATOR     = 

OBJECT_NAME    = STARLINK-36196
OBJECT_ID      = 2025-299F
CENTER_NAME    = EARTH
REF_FRAME      = TEME
TIME_SYSTEM    = UTC
MEAN_ELEMENT_THEORY = SGP/SGP4

EPOCH          = 2026-01-14T06:00:02.000160
MEAN_MOTION    = 15.40676873
ECCENTRICITY   = .00016783
INCLINATION    = 42.9996
RA_OF_ASC_NODE = 122.2430
ARG_OF_PERICENTER = 259.5991
MEAN_ANOMALY   = 90.2106

EPHEMERIS_TYPE = 0
CLASSIFICATION_TYPE = U
NORAD_CAT_ID   = 67107
ELEMENT_SET_NO = 999
REV_AT_EPOCH   = 603
BSTAR          = .15206265E-2
MEAN_MOTION_DOT = .637E-3
MEAN_MOTION_DDOT = 0

CCSDS_OMM_VERS = 2.0
CREATION_DATE  = 
ORIGINATOR     = 

OBJECT_NAME    = STARLINK-36208
OBJECT_ID      = 2025-299G
CENTER_NAME    = EARTH
REF_FRAME      = TEME
TIME_SYSTEM    = UTC
MEAN_ELEMENT_THEORY = SGP/SGP4

EPOCH          = 2026-01-14T06:00:02.000160
MEAN_MOTION    = 15.40675756
ECCENTRICITY   = .00016846
INCLINATION    = 42.9997
RA_OF_ASC_NODE = 122.0307
ARG_OF_PERICENTER = 282.2813
MEAN_ANOMALY   = 154.6124

EPHEMERIS_TYPE = 0
CLASSIFICATION_TYPE = U
NORAD_CAT_ID   = 67108
ELEMENT_SET_NO = 999
REV_AT_EPOCH   = 603
BSTAR          = .12026111E-2
MEAN_MOTION_DOT = .50224E-3
MEAN_MOTION_DDOT = 0

CCSDS_OMM_VERS = 2.0
CREATION_DATE  = 
ORIGINATOR     = 

OBJECT_NAME    = STARLINK-35764
OBJECT_ID      = 2025-299H
CENTER_NAME    = EARTH
REF_FRAME      = TEME
TIME_SYSTEM    = UTC
MEAN_ELEMENT_THEORY = SGP/SGP4

EPOCH          = 2026-01-13T08:51:14.154048
MEAN_MOTION    = 15.40738277
ECCENTRICITY   = .0001328
INCLINATION    = 42.9992
RA_OF_ASC_NODE = 127.6517
ARG_OF_PERICENTER = 275.4358
MEAN_ANOMALY   = 84.6347

EPHEMERIS_TYPE = 0
CLASSIFICATION_TYPE = U
NORAD_CAT_ID   = 67109
ELEMENT_SET_NO = 999
REV_AT_EPOCH   = 567
BSTAR          = .10023E-2
MEAN_MOTION_DOT = .41846E-3
MEAN_MOTION_DDOT = 0

CCSDS_OMM_VERS = 2.0
CREATION_DATE  = 
ORIGINATOR     = 

OBJECT_NAME    = STARLINK-35781
OBJECT_ID      = 2025-299J
CENTER_NAME    = EARTH
REF_FRAME      = TEME
TIME_SYSTEM    = UTC
MEAN_ELEMENT_THEORY = SGP/SGP4

EPOCH          = 2026-01-14T00:00:02.000160
MEAN_MOTION    = 15.40710859
ECCENTRICITY   = .00013516
INCLINATION    = 43.0000
RA_OF_ASC_NODE = 123.8025
ARG_OF_PERICENTER = 272.4593
MEAN_ANOMALY   = 79.3082

EPHEMERIS_TYPE = 0
CLASSIFICATION_TYPE = U
NORAD_CAT_ID   = 67110
ELEMENT_SET_NO = 999
REV_AT_EPOCH   = 594
BSTAR          = -.50435068E-3
MEAN_MOTION_DOT = -.2132E-3
MEAN_MOTION_DDOT = 0

CCSDS_OMM_VERS = 2.0
CREATION_DATE  = 
ORIGINATOR     = 

OBJECT_NAME    = STARLINK-35875
OBJECT_ID      = 2025-299K
CENTER_NAME    = EARTH
REF_FRAME      = TEME
TIME_SYSTEM    = UTC
MEAN_ELEMENT_THEORY = SGP/SGP4

EPOCH          = 2026-01-14T06:00:02.000160
MEAN_MOTION    = 15.40669914
ECCENTRICITY   = .00015093
INCLINATION    = 42.9993
RA_OF_ASC_NODE = 122.1214
ARG_OF_PERICENTER = 260.1116
MEAN_ANOMALY   = 139.4656

EPHEMERIS_TYPE = 0
CLASSIFICATION_TYPE = U
NORAD_CAT_ID   = 67111
ELEMENT_SET_NO = 999
REV_AT_EPOCH   = 592
BSTAR          = .12874833E-2
MEAN_MOTION_DOT = .53804E-3
MEAN_MOTION_DDOT = 0

CCSDS_OMM_VERS = 2.0
CREATION_DATE  = 
ORIGINATOR     = 

OBJECT_NAME    = STARLINK-35906
OBJECT_ID      = 2025-299L
CENTER_NAME    = EARTH
REF_FRAME      = TEME
TIME_SYSTEM    = UTC
MEAN_ELEMENT_THEORY = SGP/SGP4

EPOCH          = 2026-01-14T06:00:02.000160
MEAN_MOTION    = 15.40673519
ECCENTRICITY   = .00017735
INCLINATION    = 42.9999
RA_OF_ASC_NODE = 121.9387
ARG_OF_PERICENTER = 269.2720
MEAN_ANOMALY   = 204.9435

EPHEMERIS_TYPE = 0
CLASSIFICATION_TYPE = U
NORAD_CAT_ID   = 67112
ELEMENT_SET_NO = 999
REV_AT_EPOCH   = 592
BSTAR          = .11170837E-2
MEAN_MOTION_DOT = .46605E-3
MEAN_MOTION_DDOT = 0

CCSDS_OMM_VERS = 2.0
CREATION_DATE  = 
ORIGINATOR     = 

OBJECT_NAME    = STARLINK-35789
OBJECT_ID      = 2025-299M
CENTER_NAME    = EARTH
REF_FRAME      = TEME
TIME_SYSTEM    = UTC
MEAN_ELEMENT_THEORY = SGP/SGP4

EPOCH          = 2026-01-13T16:08:57.904224
MEAN_MOTION    = 15.40713273
ECCENTRICITY   = .00013212
INCLINATION    = 42.9989
RA_OF_ASC_NODE = 125.6285
ARG_OF_PERICENTER = 277.3027
MEAN_ANOMALY   = 82.7680

EPHEMERIS_TYPE = 0
CLASSIFICATION_TYPE = U
NORAD_CAT_ID   = 67113
ELEMENT_SET_NO = 999
REV_AT_EPOCH   = 463
BSTAR          = .416444E-3
MEAN_MOTION_DOT = .17139E-3
MEAN_MOTION_DDOT = 0

