STARLINK-36255          
1 67102U 25299A   26013.57459788  .00027151  00000+0  65432-3 0  9996
2 67102  42.9988 126.6166 0000993 106.5023 253.5943 15.40728019  4613
STARLINK-36256          
1 67103U 25299B   26014.15357314  .00024983  00000+0  60291-3 0  9992
2 67103  43.0006 123.2227 0001692 273.2391  86.8272 15.40723164  4703
STARLINK-36258          
1 67104U 25299C   26014.25002315  .00048465  00000+0  11619-2 0  9992
2 67104  43.0001 121.9105 0001939 265.8545 220.8462 15.40652886  6032
STARLINK-36261          
1 67105U 25299D   26013.70201408  .00029188  00000+0  70264-3 0  9999
2 67105  43.0011 125.8549 0001745 271.2696  88.7960 15.40729416  4634
STARLINK-36259          
1 67106U 25299E   26013.35995467  .00033070  00000+0  79471-3 0  9990
2 67106  42.9974 127.5842 0001024 304.5428  55.5332 15.40730226  4589
STARLINK-36196          
1 67107U 25299F   26014.25002315  .00063700  00000+0  15206-2 0  9990
2 67107  42.9996 122.2430 0001678 259.5991  90.2106 15.40676873  6032
STARLINK-36208          
1 67108U 25299G   26014.25002315  .00050224  00000+0  12026-2 0  9995
2 67108  42.9997 122.0307 0001684 282.2813 154.6124 15.40675756  6032
STARLINK-35764          
1 67109U 25299H   26013.36891382  .00041846  00000+0  10023-2 0  9992
2 67109  42.9992 127.6517 0001328 275.4358  84.6347 15.40738277  5671
STARLINK-35781          
1 67110U 25299J   26014.00002315 -.00021320  00000+0 -50435-3 0  9995
2 67110  43.0000 123.8025 0001351 272.4593  79.3082 15.40710859  5944
STARLINK-35875          
1 67111U 25299K   26014.25002315  .00053804  00000+0  12875-2 0  9998
2 67111  42.9993 122.1214 0001509 260.1116 139.4656 15.40669914  5924
STARLINK-35906          
1 67112U 25299L   26014.25002315  .00046605  00000+0  11171-2 0  9998
2 67112  42.9999 121.9387 0001773 269.2720 204.9435 15.40673519  5922
STARLINK-35789          
1 67113U 25299M   26013.67289241  .00017139  00000+0  41644-3 0  9998
2 67113  42.9989 125.6285 0001321 277.3027  82.7680 15.40713273  4632
